[{"OBJECT_NAME":"IRIDIUM 33 DEB","OBJECT_ID":"1997-051BV","EPOCH":"2026-03-04T23:03:38.366208","MEAN_MOTION":14.90025707,"ECCENTRICITY":0.00023389,"INCLINATION":86.2484,"RA_OF_ASC_NODE":250.5866,"ARG_OF_PERICENTER":120.349,"MEAN_ANOMALY":40.7535,"EPHEMERIS_TYPE":0,"CLASSIFICATION_TYPE":"U","NORAD_CAT_ID":33960,"ELEMENT_SET_NO":999,"REV_AT_EPOCH":90089,"BSTAR":0.0035476595,"MEAN_MOTION_DOT":0.00034375,"MEAN_MOTION_DDOT":0},{"OBJECT_NAME":"IRIDIUM 33 DEB","OBJECT_ID":"1997-051CB","EPOCH":"2026-03-05T07:39:18.747072","MEAN_MOTION":14.50020679,"ECCENTRICITY":0.00054164,"INCLINATION":86.397,"RA_OF_ASC_NODE":10.5724,"ARG_OF_PERICENTER":301.0452,"MEAN_ANOMALY":211.1781,"EPHEMERIS_TYPE":0,"CLASSIFICATION_TYPE":"U","NORAD_CAT_ID":33966,"ELEMENT_SET_NO":999,"REV_AT_EPOCH":89638,"BSTAR":0.00085733676,"MEAN_MOTION_DOT":3.34e-5,"MEAN_MOTION_DDOT":0},{"OBJECT_NAME":"IRIDIUM 33 DEB","OBJECT_ID":"1997-051CE","EPOCH":"2026-03-05T05:06:09.141984","MEAN_MOTION":14.49976363,"ECCENTRICITY":0.00067269,"INCLINATION":86.3502,"RA_OF_ASC_NODE":341.9827,"ARG_OF_PERICENTER":176.4187,"MEAN_ANOMALY":183.7067,"EPHEMERIS_TYPE":0,"CLASSIFICATION_TYPE":"U","NORAD_CAT_ID":34071,"ELEMENT_SET_NO":999,"REV_AT_EPOCH":89529,"BSTAR":0.00085241903,"MEAN_MOTION_DOT":3.318e-5,"MEAN_MOTION_DDOT":0},{"OBJECT_NAME":"IRIDIUM 33 DEB","OBJECT_ID":"1997-051CL","EPOCH":"2026-03-05T06:12:03.855744","MEAN_MOTION":14.66516046,"ECCENTRICITY":0.00121276,"INCLINATION":86.389,"RA_OF_ASC_NODE":15.1024,"ARG_OF_PERICENTER":97.6571,"MEAN_ANOMALY":29.8878,"EPHEMERIS_TYPE":0,"CLASSIFICATION_TYPE":"U","NORAD_CAT_ID":34077,"ELEMENT_SET_NO":999,"REV_AT_EPOCH":89541,"BSTAR":0.0018611097,"MEAN_MOTION_DOT":0.00010352,"MEAN_MOTION_DDOT":0},{"OBJECT_NAME":"IRIDIUM 33 DEB","OBJECT_ID":"1997-051CN","EPOCH":"2026-03-05T06:05:50.902368","MEAN_MOTION":14.86898009,"ECCENTRICITY":0.00096346,"INCLINATION":86.3793,"RA_OF_ASC_NODE":331.0482,"ARG_OF_PERICENTER":57.6082,"MEAN_ANOMALY":70.1314,"EPHEMERIS_TYPE":0,"CLASSIFICATION_TYPE":"U","NORAD_CAT_ID":34079,"ELEMENT_SET_NO":999,"REV_AT_EPOCH":90202,"BSTAR":0.0021000961,"MEAN_MOTION_DOT":0.00018825,"MEAN_MOTION_DDOT":0},{"OBJECT_NAME":"IRIDIUM 33 DEB","OBJECT_ID":"1997-051CX","EPOCH":"2026-03-05T06:43:29.818272","MEAN_MOTION":14.97660825,"ECCENTRICITY":0.00017859,"INCLINATION":86.3867,"RA_OF_ASC_NODE":352.6284,"ARG_OF_PERICENTER":65.4373,"MEAN_ANOMALY":95.32,"EPHEMERIS_TYPE":0,"CLASSIFICATION_TYPE":"U","NORAD_CAT_ID":34088,"ELEMENT_SET_NO":999,"REV_AT_EPOCH":89974,"BSTAR":0.0037393343,"MEAN_MOTION_DOT":0.00043996,"MEAN_MOTION_DDOT":0},{"OBJECT_NAME":"IRIDIUM 33 DEB","OBJECT_ID":"1997-051DA","EPOCH":"2026-03-05T03:52:39.570240","MEAN_MOTION":14.89311184,"ECCENTRICITY":0.00329822,"INCLINATION":86.3438,"RA_OF_ASC_NODE":28.8682,"ARG_OF_PERICENTER":14.7911,"MEAN_ANOMALY":345.4272,"EPHEMERIS_TYPE":0,"CLASSIFICATION_TYPE":"U","NORAD_CAT_ID":34091,"ELEMENT_SET_NO":999,"REV_AT_EPOCH":89090,"BSTAR":0.0057745229,"MEAN_MOTION_DOT":0.0005567,"MEAN_MOTION_DDOT":0},{"OBJECT_NAME":"IRIDIUM 33 DEB","OBJECT_ID":"1997-051DG","EPOCH":"2026-03-05T05:04:11.225856","MEAN_MOTION":14.35510457,"ECCENTRICITY":0.00838255,"INCLINATION":86.2018,"RA_OF_ASC_NODE":324.9988,"ARG_OF_PERICENTER":90.7936,"MEAN_ANOMALY":270.2866,"EPHEMERIS_TYPE":0,"CLASSIFICATION_TYPE":"U","NORAD_CAT_ID":34097,"ELEMENT_SET_NO":999,"REV_AT_EPOCH":88302,"BSTAR":0.0015160937,"MEAN_MOTION_DOT":4.558e-5,"MEAN_MOTION_DDOT":0},{"OBJECT_NAME":"IRIDIUM 33 DEB","OBJECT_ID":"1997-051DY","EPOCH":"2026-03-04T09:10:10.432416","MEAN_MOTION":14.43058007,"ECCENTRICITY":0.00518193,"INCLINATION":86.2092,"RA_OF_ASC_NODE":296.1518,"ARG_OF_PERICENTER":182.8117,"MEAN_ANOMALY":177.28,"EPHEMERIS_TYPE":0,"CLASSIFICATION_TYPE":"U","NORAD_CAT_ID":34145,"ELEMENT_SET_NO":999,"REV_AT_EPOCH":88815,"BSTAR":0.001148893,"MEAN_MOTION_DOT":3.933e-5,"MEAN_MOTION_DDOT":0},{"OBJECT_NAME":"IRIDIUM 33 DEB","OBJECT_ID":"1997-051DZ","EPOCH":"2026-03-05T03:24:44.428032","MEAN_MOTION":14.49709457,"ECCENTRICITY":0.0025913,"INCLINATION":86.2837,"RA_OF_ASC_NODE":313.3988,"ARG_OF_PERICENTER":315.6218,"MEAN_ANOMALY":207.01,"EPHEMERIS_TYPE":0,"CLASSIFICATION_TYPE":"U","NORAD_CAT_ID":34146,"ELEMENT_SET_NO":999,"REV_AT_EPOCH":89300,"BSTAR":0.00079778142,"MEAN_MOTION_DOT":3.102e-5,"MEAN_MOTION_DDOT":0},{"OBJECT_NAME":"IRIDIUM 33 DEB","OBJECT_ID":"1997-051EN","EPOCH":"2026-03-05T03:45:59.990976","MEAN_MOTION":14.38737461,"ECCENTRICITY":0.00291379,"INCLINATION":86.3547,"RA_OF_ASC_NODE":13.0889,"ARG_OF_PERICENTER":20.9602,"MEAN_ANOMALY":339.2783,"EPHEMERIS_TYPE":0,"CLASSIFICATION_TYPE":"U","NORAD_CAT_ID":34159,"ELEMENT_SET_NO":999,"REV_AT_EPOCH":89144,"BSTAR":0.00061407083,"MEAN_MOTION_DOT":1.913e-5,"MEAN_MOTION_DDOT":0},{"OBJECT_NAME":"IRIDIUM 33 DEB","OBJECT_ID":"1997-051ES","EPOCH":"2026-03-05T04:50:27.591072","MEAN_MOTION":14.45679457,"ECCENTRICITY":0.00192233,"INCLINATION":86.3308,"RA_OF_ASC_NODE":327.0394,"ARG_OF_PERICENTER":222.0762,"MEAN_ANOMALY":290.5824,"EPHEMERIS_TYPE":0,"CLASSIFICATION_TYPE":"U","NORAD_CAT_ID":34350,"ELEMENT_SET_NO":999,"REV_AT_EPOCH":89484,"BSTAR":0.00041589156,"MEAN_MOTION_DOT":1.494e-5,"MEAN_MOTION_DDOT":0},{"OBJECT_NAME":"IRIDIUM 33 DEB","OBJECT_ID":"1997-051FJ","EPOCH":"2026-03-05T07:41:04.892928","MEAN_MOTION":14.5495841,"ECCENTRICITY":0.00179136,"INCLINATION":86.3729,"RA_OF_ASC_NODE":13.3629,"ARG_OF_PERICENTER":219.1613,"MEAN_ANOMALY":292.9042,"EPHEMERIS_TYPE":0,"CLASSIFICATION_TYPE":"U","NORAD_CAT_ID":34366,"ELEMENT_SET_NO":999,"REV_AT_EPOCH":89382,"BSTAR":0.0015595652,"MEAN_MOTION_DOT":6.744e-5,"MEAN_MOTION_DDOT":0},{"OBJECT_NAME":"IRIDIUM 33 DEB","OBJECT_ID":"1997-051FT","EPOCH":"2026-03-05T05:57:27.141120","MEAN_MOTION":14.18169804,"ECCENTRICITY":0.01009162,"INCLINATION":86.4352,"RA_OF_ASC_NODE":149.468,"ARG_OF_PERICENTER":223.8431,"MEAN_ANOMALY":190.8016,"EPHEMERIS_TYPE":0,"CLASSIFICATION_TYPE":"U","NORAD_CAT_ID":34375,"ELEMENT_SET_NO":999,"REV_AT_EPOCH":87881,"BSTAR":0.0006105449,"MEAN_MOTION_DOT":1.336e-5,"MEAN_MOTION_DDOT":0},{"OBJECT_NAME":"IRIDIUM 33 DEB","OBJECT_ID":"1997-051FU","EPOCH":"2026-03-05T04:59:44.466720","MEAN_MOTION":14.64452006,"ECCENTRICITY":0.00224009,"INCLINATION":86.2997,"RA_OF_ASC_NODE":329.4224,"ARG_OF_PERICENTER":251.3326,"MEAN_ANOMALY":108.5454,"EPHEMERIS_TYPE":0,"CLASSIFICATION_TYPE":"U","NORAD_CAT_ID":34376,"ELEMENT_SET_NO":999,"REV_AT_EPOCH":89213,"BSTAR":0.0019445691,"MEAN_MOTION_DOT":0.00010355,"MEAN_MOTION_DDOT":0},{"OBJECT_NAME":"IRIDIUM 33 DEB","OBJECT_ID":"1997-051GB","EPOCH":"2026-03-05T06:15:44.124768","MEAN_MOTION":15.01826656,"ECCENTRICITY":0.00089862,"INCLINATION":86.395,"RA_OF_ASC_NODE":333.7698,"ARG_OF_PERICENTER":150.8952,"MEAN_ANOMALY":335.9409,"EPHEMERIS_TYPE":0,"CLASSIFICATION_TYPE":"U","NORAD_CAT_ID":34486,"ELEMENT_SET_NO":999,"REV_AT_EPOCH":90222,"BSTAR":0.0028786596,"MEAN_MOTION_DOT":0.00037746,"MEAN_MOTION_DDOT":0}]
