IRIDIUM 33 DEB          
1 33960U 97051BV  26063.96086072  .00034375  00000+0  35477-2 0  9997
2 33960  86.2484 250.5866 0002338 120.3490  40.7535 14.90025707900897
IRIDIUM 33 DEB          
1 33966U 97051CB  26064.31896698  .00003340  00000+0  85734-3 0  9996
2 33966  86.3970  10.5724 0005416 301.0452 211.1781 14.50020679896381
IRIDIUM 33 DEB          
1 34071U 97051CE  26064.21260581  .00003318  00000+0  85242-3 0  9998
2 34071  86.3502 341.9827 0006726 176.4187 183.7067 14.49976363895297
IRIDIUM 33 DEB          
1 34077U 97051CL  26064.25837796  .00010352  00000+0  18611-2 0  9997
2 34077  86.3890  15.1024 0012127  97.6571  29.8878 14.66516046895416
IRIDIUM 33 DEB          
1 34079U 97051CN  26064.25406137  .00018825  00000+0  21001-2 0  9990
2 34079  86.3793 331.0482 0009634  57.6082  70.1314 14.86898009902024
IRIDIUM 33 DEB          
1 34088U 97051CX  26064.28020623  .00043996  00000+0  37393-2 0  9993
2 34088  86.3867 352.6284 0001785  65.4373  95.3200 14.97660825899746
IRIDIUM 33 DEB          
1 34091U 97051DA  26064.16156910  .00055670  00000+0  57745-2 0  9998
2 34091  86.3438  28.8682 0032982  14.7911 345.4272 14.89311184890905
IRIDIUM 33 DEB          
1 34097U 97051DG  26064.21124104  .00004558  00000+0  15161-2 0  9995
2 34097  86.2018 324.9988 0083825  90.7936 270.2866 14.35510457883020
IRIDIUM 33 DEB          
1 34145U 97051DY  26063.38206519  .00003933  00000+0  11489-2 0  9992
2 34145  86.2092 296.1518 0051819 182.8117 177.2800 14.43058007888157
IRIDIUM 33 DEB          
1 34146U 97051DZ  26064.14218088  .00003102  00000+0  79778-3 0  9996
2 34146  86.2837 313.3988 0025913 315.6218 207.0100 14.49709457893005
IRIDIUM 33 DEB          
1 34159U 97051EN  26064.15694434  .00001913  00000+0  61407-3 0  9992
2 34159  86.3547  13.0889 0029137  20.9602 339.2783 14.38737461891442
IRIDIUM 33 DEB          
1 34350U 97051ES  26064.20170823  .00001494  00000+0  41589-3 0  9995
2 34350  86.3308 327.0394 0019223 222.0762 290.5824 14.45679457894846
IRIDIUM 33 DEB          
1 34366U 97051FJ  26064.32019552  .00006744  00000+0  15596-2 0  9997
2 34366  86.3729  13.3629 0017913 219.1613 292.9042 14.54958410893826
IRIDIUM 33 DEB          
1 34375U 97051FT  26064.24823080  .00001336  00000+0  61054-3 0  9990
2 34375  86.4352 149.4680 0100916 223.8431 190.8016 14.18169804878813
IRIDIUM 33 DEB          
1 34376U 97051FU  26064.20815355  .00010355  00000+0  19446-2 0  9991
2 34376  86.2997 329.4224 0022400 251.3326 108.5454 14.64452006892134
IRIDIUM 33 DEB          
1 34486U 97051GB  26064.26092737  .00037746  00000+0  28787-2 0  9991
2 34486  86.3950 333.7698 0008986 150.8952 335.9409 15.01826656902226
